{"fetched_at":"2026-07-19T17:31:37.739Z","source":"https://celestrak.org/NORAD/elements/gp.php?NAME=ICEYE&FORMAT=JSON","constellation":"iceye","records":[{"OBJECT_NAME":"ICEYE-X40","OBJECT_ID":"2024-149CK","EPOCH":"2026-07-19T03:57:07.065504","CLASSIFICATION_TYPE":"U","MEAN_MOTION":14.98089888,"ECCENTRICITY":0.00037067,"INCLINATION":97.6807,"RA_OF_ASC_NODE":276.1467,"ARG_OF_PERICENTER":353.5814,"MEAN_ANOMALY":6.536,"EPHEMERIS_TYPE":0,"NORAD_CAT_ID":60549,"ELEMENT_SET_NO":999,"REV_AT_EPOCH":10486,"BSTAR":0.0001329576,"MEAN_MOTION_DOT":0.00001515,"MEAN_MOTION_DDOT":0},{"OBJECT_NAME":"ICEYE-X49","OBJECT_ID":"2024-247H","EPOCH":"2026-07-17T08:01:48.831744","CLASSIFICATION_TYPE":"U","MEAN_MOTION":15.13466886,"ECCENTRICITY":0.00013347,"INCLINATION":44.9994,"RA_OF_ASC_NODE":196.3565,"ARG_OF_PERICENTER":239.0218,"MEAN_ANOMALY":121.0529,"EPHEMERIS_TYPE":0,"NORAD_CAT_ID":62384,"ELEMENT_SET_NO":999,"REV_AT_EPOCH":8674,"BSTAR":0.00009597161,"MEAN_MOTION_DOT":0.00001489,"MEAN_MOTION_DDOT":0},{"OBJECT_NAME":"ICEYE-X47","OBJECT_ID":"2024-247N","EPOCH":"2026-07-18T08:47:52.191456","CLASSIFICATION_TYPE":"U","MEAN_MOTION":15.13492282,"ECCENTRICITY":0.00010763,"INCLINATION":44.996,"RA_OF_ASC_NODE":190.4383,"ARG_OF_PERICENTER":8.2168,"MEAN_ANOMALY":351.8727,"EPHEMERIS_TYPE":0,"NORAD_CAT_ID":62389,"ELEMENT_SET_NO":999,"REV_AT_EPOCH":8690,"BSTAR":0.00006786378,"MEAN_MOTION_DOT":0.00000978,"MEAN_MOTION_DDOT":0},{"OBJECT_NAME":"ICEYE-X42","OBJECT_ID":"2025-009CT","EPOCH":"2026-07-19T04:48:48.346848","CLASSIFICATION_TYPE":"U","MEAN_MOTION":14.91828362,"ECCENTRICITY":0.00013095,"INCLINATION":97.7387,"RA_OF_ASC_NODE":277.9379,"ARG_OF_PERICENTER":98.3044,"MEAN_ANOMALY":261.8323,"EPHEMERIS_TYPE":0,"NORAD_CAT_ID":62698,"ELEMENT_SET_NO":999,"REV_AT_EPOCH":8206,"BSTAR":0.000082149727,"MEAN_MOTION_DOT":0.00000774,"MEAN_MOTION_DDOT":0},{"OBJECT_NAME":"ICEYE-X41","OBJECT_ID":"2025-009CV","EPOCH":"2026-07-19T05:23:03.064992","CLASSIFICATION_TYPE":"U","MEAN_MOTION":14.9692603,"ECCENTRICITY":0.00004107,"INCLINATION":97.7058,"RA_OF_ASC_NODE":279.286,"ARG_OF_PERICENTER":195.1246,"MEAN_ANOMALY":164.9963,"EPHEMERIS_TYPE":0,"NORAD_CAT_ID":62700,"ELEMENT_SET_NO":999,"REV_AT_EPOCH":8220,"BSTAR":0.00015437063,"MEAN_MOTION_DOT":0.00001715,"MEAN_MOTION_DDOT":0},{"OBJECT_NAME":"ICEYE-X45","OBJECT_ID":"2025-009DA","EPOCH":"2026-07-19T04:45:21.289248","CLASSIFICATION_TYPE":"U","MEAN_MOTION":15.00844925,"ECCENTRICITY":0.0001016,"INCLINATION":97.8413,"RA_OF_ASC_NODE":287.152,"ARG_OF_PERICENTER":79.8221,"MEAN_ANOMALY":280.3117,"EPHEMERIS_TYPE":0,"NORAD_CAT_ID":62705,"ELEMENT_SET_NO":999,"REV_AT_EPOCH":8248,"BSTAR":0.00016440663,"MEAN_MOTION_DOT":0.00002028,"MEAN_MOTION_DDOT":0},{"OBJECT_NAME":"ICEYE-X44","OBJECT_ID":"2025-009DC","EPOCH":"2026-07-19T04:31:37.331328","CLASSIFICATION_TYPE":"U","MEAN_MOTION":14.96179196,"ECCENTRICITY":0.00022628,"INCLINATION":97.7056,"RA_OF_ASC_NODE":278.8102,"ARG_OF_PERICENTER":64.7193,"MEAN_ANOMALY":295.4263,"EPHEMERIS_TYPE":0,"NORAD_CAT_ID":62707,"ELEMENT_SET_NO":999,"REV_AT_EPOCH":10472,"BSTAR":0.000099682318,"MEAN_MOTION_DOT":0.00001066,"MEAN_MOTION_DDOT":0},{"OBJECT_NAME":"ICEYE-X48","OBJECT_ID":"2025-052AV","EPOCH":"2026-07-19T04:25:39.665568","CLASSIFICATION_TYPE":"U","MEAN_MOTION":14.98141525,"ECCENTRICITY":0.00042874,"INCLINATION":97.6841,"RA_OF_ASC_NODE":91.8799,"ARG_OF_PERICENTER":94.6277,"MEAN_ANOMALY":265.5435,"EPHEMERIS_TYPE":0,"NORAD_CAT_ID":63253,"ELEMENT_SET_NO":999,"REV_AT_EPOCH":7346,"BSTAR":0.00016939314,"MEAN_MOTION_DOT":0.00001949,"MEAN_MOTION_DDOT":0},{"OBJECT_NAME":"ICEYE-X50","OBJECT_ID":"2025-052AX","EPOCH":"2026-07-19T06:39:54.836064","CLASSIFICATION_TYPE":"U","MEAN_MOTION":14.95370509,"ECCENTRICITY":0.0003411,"INCLINATION":97.685,"RA_OF_ASC_NODE":91.5518,"ARG_OF_PERICENTER":94.1324,"MEAN_ANOMALY":266.0287,"EPHEMERIS_TYPE":0,"NORAD_CAT_ID":63255,"ELEMENT_SET_NO":999,"REV_AT_EPOCH":7344,"BSTAR":0.000032533627,"MEAN_MOTION_DOT":0.00000303,"MEAN_MOTION_DDOT":0},{"OBJECT_NAME":"ICEYE-X51","OBJECT_ID":"2025-052AZ","EPOCH":"2026-07-19T04:36:54.849600","CLASSIFICATION_TYPE":"U","MEAN_MOTION":15.00875864,"ECCENTRICITY":0.00021214,"INCLINATION":97.7618,"RA_OF_ASC_NODE":95.2323,"ARG_OF_PERICENTER":62.7938,"MEAN_ANOMALY":297.3502,"EPHEMERIS_TYPE":0,"NORAD_CAT_ID":63257,"ELEMENT_SET_NO":999,"REV_AT_EPOCH":7360,"BSTAR":0.00018586004,"MEAN_MOTION_DOT":0.00002304,"MEAN_MOTION_DDOT":0},{"OBJECT_NAME":"ICEYE-X46","OBJECT_ID":"2025-052BA","EPOCH":"2026-07-19T04:58:49.873152","CLASSIFICATION_TYPE":"U","MEAN_MOTION":14.95373431,"ECCENTRICITY":0.00015993,"INCLINATION":97.6853,"RA_OF_ASC_NODE":91.4823,"ARG_OF_PERICENTER":79.7725,"MEAN_ANOMALY":280.3676,"EPHEMERIS_TYPE":0,"NORAD_CAT_ID":63258,"ELEMENT_SET_NO":999,"REV_AT_EPOCH":7343,"BSTAR":0.000042325739,"MEAN_MOTION_DOT":0.00000411,"MEAN_MOTION_DDOT":0},{"OBJECT_NAME":"ICEYE-X54","OBJECT_ID":"2025-135AU","EPOCH":"2026-07-19T07:01:31.018368","CLASSIFICATION_TYPE":"U","MEAN_MOTION":14.94743468,"ECCENTRICITY":0.000236,"INCLINATION":97.7749,"RA_OF_ASC_NODE":314.4105,"ARG_OF_PERICENTER":170.8599,"MEAN_ANOMALY":189.2665,"EPHEMERIS_TYPE":0,"NORAD_CAT_ID":64570,"ELEMENT_SET_NO":999,"REV_AT_EPOCH":5869,"BSTAR":0.000096585052,"MEAN_MOTION_DOT":0.00000992,"MEAN_MOTION_DDOT":0},{"OBJECT_NAME":"ICEYE-X52","OBJECT_ID":"2025-135AW","EPOCH":"2026-07-19T07:02:42.162720","CLASSIFICATION_TYPE":"U","MEAN_MOTION":14.93660161,"ECCENTRICITY":0.00015792,"INCLINATION":97.7771,"RA_OF_ASC_NODE":314.195,"ARG_OF_PERICENTER":175.7286,"MEAN_ANOMALY":184.3948,"EPHEMERIS_TYPE":0,"NORAD_CAT_ID":64572,"ELEMENT_SET_NO":999,"REV_AT_EPOCH":5867,"BSTAR":0.000060291261,"MEAN_MOTION_DOT":0.0000058,"MEAN_MOTION_DDOT":0},{"OBJECT_NAME":"ICEYE-X56","OBJECT_ID":"2025-135AY","EPOCH":"2026-07-19T06:39:21.109824","CLASSIFICATION_TYPE":"U","MEAN_MOTION":14.95778076,"ECCENTRICITY":0.0001647,"INCLINATION":97.7772,"RA_OF_ASC_NODE":314.9909,"ARG_OF_PERICENTER":174.6992,"MEAN_ANOMALY":185.4246,"EPHEMERIS_TYPE":0,"NORAD_CAT_ID":64574,"ELEMENT_SET_NO":999,"REV_AT_EPOCH":5872,"BSTAR":0.00016553677,"MEAN_MOTION_DOT":0.00001788,"MEAN_MOTION_DDOT":0},{"OBJECT_NAME":"ICEYE-X57","OBJECT_ID":"2025-135BC","EPOCH":"2026-07-19T06:26:10.251744","CLASSIFICATION_TYPE":"U","MEAN_MOTION":15.00857554,"ECCENTRICITY":0.00021106,"INCLINATION":97.8033,"RA_OF_ASC_NODE":316.8388,"ARG_OF_PERICENTER":56.9583,"MEAN_ANOMALY":303.1844,"EPHEMERIS_TYPE":0,"NORAD_CAT_ID":64578,"ELEMENT_SET_NO":999,"REV_AT_EPOCH":5883,"BSTAR":0.00017079803,"MEAN_MOTION_DOT":0.00002111,"MEAN_MOTION_DDOT":0},{"OBJECT_NAME":"ICEYE-X55","OBJECT_ID":"2025-135BF","EPOCH":"2026-07-19T06:51:39.763296","CLASSIFICATION_TYPE":"U","MEAN_MOTION":14.95376176,"ECCENTRICITY":0.00021211,"INCLINATION":97.777,"RA_OF_ASC_NODE":314.8225,"ARG_OF_PERICENTER":216.5781,"MEAN_ANOMALY":143.5295,"EPHEMERIS_TYPE":0,"NORAD_CAT_ID":64581,"ELEMENT_SET_NO":999,"REV_AT_EPOCH":5871,"BSTAR":0.00012393568,"MEAN_MOTION_DOT":0.0000131,"MEAN_MOTION_DDOT":0}]}
