ICEYE-X40               
1 60549U 24149CK  26200.16466511  .00001515  00000+0  13296-3 0  9999
2 60549  97.6807 276.1467 0003706 353.5814   6.5360 14.98089888104863
ICEYE-X49               
1 62384U 24247H   26198.33459296  .00001489  00000+0  95972-4 0  9996
2 62384  44.9994 196.3565 0001334 239.0218 121.0529 15.13466886 86748
ICEYE-X47               
1 62389U 24247N   26199.36657629  .00000978  00000+0  67864-4 0  9996
2 62389  44.9960 190.4383 0001076   8.2168 351.8727 15.13492282 86902
ICEYE-X42               
1 62698U 25009CT  26200.20055957  .00000774  00000+0  82150-4 0  9997
2 62698  97.7387 277.9379 0001309  98.3044 261.8323 14.91828362 82064
ICEYE-X41               
1 62700U 25009CV  26200.22434103  .00001715  00000+0  15437-3 0  9996
2 62700  97.7058 279.2860 0000410 195.1246 164.9963 14.96926030 82200
ICEYE-X45               
1 62705U 25009DA  26200.19816307  .00002028  00000+0  16441-3 0  9991
2 62705  97.8413 287.1520 0001016  79.8221 280.3117 15.00844925 82488
ICEYE-X44               
1 62707U 25009DC  26200.18862652  .00001066  00000+0  99682-4 0  9996
2 62707  97.7056 278.8102 0002262  64.7193 295.4263 14.96179196104726
ICEYE-X48               
1 63253U 25052AV  26200.18448687  .00001949  00000+0  16939-3 0  9992
2 63253  97.6841  91.8799 0004287  94.6277 265.5435 14.98141525 73465
ICEYE-X50               
1 63255U 25052AX  26200.27771801  .00000303  00000+0  32534-4 0  9994
2 63255  97.6850  91.5518 0003411  94.1324 266.0287 14.95370509 73441
ICEYE-X51               
1 63257U 25052AZ  26200.19230150  .00002304  00000+0  18586-3 0  9997
2 63257  97.7618  95.2323 0002121  62.7938 297.3502 15.00875864 73606
ICEYE-X46               
1 63258U 25052BA  26200.20752168  .00000411  00000+0  42326-4 0  9995
2 63258  97.6853  91.4823 0001599  79.7725 280.3676 14.95373431 73431
ICEYE-X54               
1 64570U 25135AU  26200.29272012  .00000992  00000+0  96585-4 0  9999
2 64570  97.7749 314.4105 0002360 170.8599 189.2665 14.94743468 58690
ICEYE-X52               
1 64572U 25135AW  26200.29354355  .00000580  00000+0  60291-4 0  9990
2 64572  97.7771 314.1950 0001579 175.7286 184.3948 14.93660161 58675
ICEYE-X56               
1 64574U 25135AY  26200.27732766  .00001788  00000+0  16554-3 0  9999
2 64574  97.7772 314.9909 0001647 174.6992 185.4246 14.95778076 58724
ICEYE-X57               
1 64578U 25135BC  26200.26817421  .00002111  00000+0  17080-3 0  9990
2 64578  97.8033 316.8388 0002110  56.9583 303.1844 15.00857554 58836
ICEYE-X55               
1 64581U 25135BF  26200.28587689  .00001310  00000+0  12394-3 0  9999
2 64581  97.7770 314.8225 0002121 216.5781 143.5295 14.95376176 58713
